QIANFAN-57              
1 62787U 25016C   25274.16789096  .00000079  00000+0  10370-3 0  9999
2 62787  88.9755 110.6941 0002027  61.9419 298.1937 13.50973469 37407
QIANFAN-58              
1 62788U 25016D   25274.21308475  .00000085  00000+0  11227-3 0  9993
2 62788  88.9725 110.5436 0013421 185.8265 174.2732 13.50973048 37453
QIANFAN-59              
1 62789U 25016E   25274.16368236  .00000094  00000+0  12741-3 0  9991
2 62789  88.9748 110.6051 0013686 190.0595 170.0284 13.50972305 37440
QIANFAN-60              
1 62790U 25016F   25273.45632892  .00000063  00000+0  77135-4 0  9991
2 62790  88.9732 110.6637 0014892 189.3455 170.7422 13.52524324 37336
QIANFAN-61              
1 62791U 25016G   25274.15543360  .00000072  00000+0  92800-4 0  9997
2 62791  88.9797 110.7048 0014267 186.0350 174.0632 13.50972647 37444
QIANFAN-62              
1 62792U 25016H   25274.15961094  .00000082  00000+0  10766-3 0  9997
2 62792  88.9744 110.6121 0015631 187.0227 173.0708 13.50966623 37437
QIANFAN-63              
1 62793U 25016J   25274.18422963  .00000081  00000+0  10694-3 0  9997
2 62793  88.9750 110.5560 0015533 192.4555 167.6215 13.50969446 37478
QIANFAN-64              
1 62794U 25016K   25274.15132527  .00000066  00000+0  83384-4 0  9999
2 62794  88.9737 110.5434 0013683 184.3607 175.7427 13.50971171 37468
